CCSDS_OMM_VERS = 2.0
CREATION_DATE  = 
ORIGINATOR     = 

OBJECT_NAME    = UNKNOWN
OBJECT_ID      = 
CENTER_NAME    = EARTH
REF_FRAME      = TEME
TIME_SYSTEM    = UTC
MEAN_ELEMENT_THEORY = SGP/SGP4

EPOCH          = 2026-01-13T17:54:40.872096
MEAN_MOTION    = 13.74261578
ECCENTRICITY   = .0174513
INCLINATION    = 66.0421
RA_OF_ASC_NODE = 23.1292
ARG_OF_PERICENTER = 173.8022
MEAN_ANOMALY   = 186.5260

EPHEMERIS_TYPE = 0
CLASSIFICATION_TYPE = U
NORAD_CAT_ID   = 85027
ELEMENT_SET_NO = 999
REV_AT_EPOCH   = 60901
BSTAR          = .12667E-3
MEAN_MOTION_DOT = .54E-6
MEAN_MOTION_DDOT = 0

CCSDS_OMM_VERS = 2.0
CREATION_DATE  = 
ORIGINATOR     = 

OBJECT_NAME    = UNKNOWN
OBJECT_ID      = 
CENTER_NAME    = EARTH
REF_FRAME      = TEME
TIME_SYSTEM    = UTC
MEAN_ELEMENT_THEORY = SGP/SGP4

EPOCH          = 2026-01-12T08:47:48.439104
MEAN_MOTION    = 13.45199111
ECCENTRICITY   = .0158211
INCLINATION    = 102.1766
RA_OF_ASC_NODE = 349.2225
ARG_OF_PERICENTER = 314.0212
MEAN_ANOMALY   = 44.7964

EPHEMERIS_TYPE = 0
CLASSIFICATION_TYPE = U
NORAD_CAT_ID   = 85047
ELEMENT_SET_NO = 999
REV_AT_EPOCH   = 58077
BSTAR          = .1913E-1
MEAN_MOTION_DOT = .12129E-3
MEAN_MOTION_DDOT = 0

CCSDS_OMM_VERS = 2.0
CREATION_DATE  = 
ORIGINATOR     = 

OBJECT_NAME    = UNKNOWN
OBJECT_ID      = 
CENTER_NAME    = EARTH
REF_FRAME      = TEME
TIME_SYSTEM    = UTC
MEAN_ELEMENT_THEORY = SGP/SGP4

EPOCH          = 2026-01-12T21:46:40.698336
MEAN_MOTION    = 12.77227261
ECCENTRICITY   = .0256042
INCLINATION    = 102.3944
RA_OF_ASC_NODE = 4.5556
ARG_OF_PERICENTER = 129.6273
MEAN_ANOMALY   = 263.9528

EPHEMERIS_TYPE = 0
CLASSIFICATION_TYPE = U
NORAD_CAT_ID   = 85061
ELEMENT_SET_NO = 999
REV_AT_EPOCH   = 55976
BSTAR          = .12622E-1
MEAN_MOTION_DOT = .3119E-4
MEAN_MOTION_DDOT = 0

CCSDS_OMM_VERS = 2.0
CREATION_DATE  = 
ORIGINATOR     = 

OBJECT_NAME    = UNKNOWN
OBJECT_ID      = 
CENTER_NAME    = EARTH
REF_FRAME      = TEME
TIME_SYSTEM    = UTC
MEAN_ELEMENT_THEORY = SGP/SGP4

EPOCH          = 2026-01-14T04:08:18.868704
MEAN_MOTION    = 14.40740623
ECCENTRICITY   = .0012156
INCLINATION    = 74.0451
RA_OF_ASC_NODE = 162.8254
ARG_OF_PERICENTER = 18.2971
MEAN_ANOMALY   = 161.8815

EPHEMERIS_TYPE = 0
CLASSIFICATION_TYPE = U
NORAD_CAT_ID   = 85100
ELEMENT_SET_NO = 999
REV_AT_EPOCH   = 63801
BSTAR          = .93567E-4
MEAN_MOTION_DOT = .273E-5
MEAN_MOTION_DDOT = 0

CCSDS_OMM_VERS = 2.0
CREATION_DATE  = 
ORIGINATOR     = 

OBJECT_NAME    = UNKNOWN
OBJECT_ID      = 
CENTER_NAME    = EARTH
REF_FRAME      = TEME
TIME_SYSTEM    = UTC
MEAN_ELEMENT_THEORY = SGP/SGP4

EPOCH          = 2026-01-13T12:59:23.745120
MEAN_MOTION    = 13.72946257
ECCENTRICITY   = .0009354
INCLINATION    = 100.0556
RA_OF_ASC_NODE = 120.9661
ARG_OF_PERICENTER = 289.0353
MEAN_ANOMALY   = 95.7267

EPHEMERIS_TYPE = 0
CLASSIFICATION_TYPE = U
NORAD_CAT_ID   = 85106
ELEMENT_SET_NO = 999
REV_AT_EPOCH   = 60743
BSTAR          = .53028E-3
MEAN_MOTION_DOT = .44E-5
MEAN_MOTION_DDOT = 0

CCSDS_OMM_VERS = 2.0
CREATION_DATE  = 
ORIGINATOR     = 

OBJECT_NAME    = UNKNOWN
OBJECT_ID      = 
CENTER_NAME    = EARTH
REF_FRAME      = TEME
TIME_SYSTEM    = UTC
MEAN_ELEMENT_THEORY = SGP/SGP4

EPOCH          = 2026-01-14T08:56:28.853952
MEAN_MOTION    = 14.80159657
ECCENTRICITY   = .0010701
INCLINATION    = 98.4034
RA_OF_ASC_NODE = 244.8795
ARG_OF_PERICENTER = 32.0059
MEAN_ANOMALY   = 328.1799

EPHEMERIS_TYPE = 0
CLASSIFICATION_TYPE = U
NORAD_CAT_ID   = 85151
ELEMENT_SET_NO = 999
REV_AT_EPOCH   = 48435
BSTAR          = .15395E-2
MEAN_MOTION_DOT = .1166E-3
MEAN_MOTION_DDOT = 0

CCSDS_OMM_VERS = 2.0
CREATION_DATE  = 
ORIGINATOR     = 

OBJECT_NAME    = UNKNOWN
OBJECT_ID      = 
CENTER_NAME    = EARTH
REF_FRAME      = TEME
TIME_SYSTEM    = UTC
MEAN_ELEMENT_THEORY = SGP/SGP4

EPOCH          = 2026-01-13T08:52:22.200960
MEAN_MOTION    = 13.71604535
ECCENTRICITY   = .0218281
INCLINATION    = 99.8562
RA_OF_ASC_NODE = 160.2249
ARG_OF_PERICENTER = 233.1030
MEAN_ANOMALY   = 154.3327

EPHEMERIS_TYPE = 0
CLASSIFICATION_TYPE = U
NORAD_CAT_ID   = 85210
ELEMENT_SET_NO = 999
REV_AT_EPOCH   = 60649
BSTAR          = .68691E-3
MEAN_MOTION_DOT = .686E-5
MEAN_MOTION_DDOT = 0

CCSDS_OMM_VERS = 2.0
CREATION_DATE  = 
ORIGINATOR     = 

OBJECT_NAME    = UNKNOWN
OBJECT_ID      = 
CENTER_NAME    = EARTH
REF_FRAME      = TEME
TIME_SYSTEM    = UTC
MEAN_ELEMENT_THEORY = SGP/SGP4

EPOCH          = 2026-01-14T05:38:12.100128
MEAN_MOTION    = 14.37359922
ECCENTRICITY   = .020776
INCLINATION    = 98.0283
RA_OF_ASC_NODE = 111.5087
ARG_OF_PERICENTER = 30.4819
MEAN_ANOMALY   = 330.8256

EPHEMERIS_TYPE = 0
CLASSIFICATION_TYPE = U
NORAD_CAT_ID   = 85217
ELEMENT_SET_NO = 999
REV_AT_EPOCH   = 63252
BSTAR          = .28424E-3
MEAN_MOTION_DOT = .1042E-4
MEAN_MOTION_DDOT = 0

CCSDS_OMM_VERS = 2.0
CREATION_DATE  = 
ORIGINATOR     = 

OBJECT_NAME    = UNKNOWN
OBJECT_ID      = 
CENTER_NAME    = EARTH
REF_FRAME      = TEME
TIME_SYSTEM    = UTC
MEAN_ELEMENT_THEORY = SGP/SGP4

EPOCH          = 2026-01-10T23:13:24.570336
MEAN_MOTION    = 14.01191952
ECCENTRICITY   = .051402
INCLINATION    = 65.5308
RA_OF_ASC_NODE = 138.1901
ARG_OF_PERICENTER = 14.2441
MEAN_ANOMALY   = 347.2516

EPHEMERIS_TYPE = 0
CLASSIFICATION_TYPE = U
NORAD_CAT_ID   = 85237
ELEMENT_SET_NO = 999
REV_AT_EPOCH   = 61244
BSTAR          = .67689E-3
MEAN_MOTION_DOT = .3188E-4
MEAN_MOTION_DDOT = 0

CCSDS_OMM_VERS = 2.0
CREATION_DATE  = 
ORIGINATOR     = 

OBJECT_NAME    = UNKNOWN
OBJECT_ID      = 
CENTER_NAME    = EARTH
REF_FRAME      = TEME
TIME_SYSTEM    = UTC
MEAN_ELEMENT_THEORY = SGP/SGP4

EPOCH          = 2026-01-14T15:14:16.079712
MEAN_MOTION    = 13.88348761
ECCENTRICITY   = .0064193
INCLINATION    = 99.0650
RA_OF_ASC_NODE = 307.8807
ARG_OF_PERICENTER = 111.3971
MEAN_ANOMALY   = 9.9486

EPHEMERIS_TYPE = 0
CLASSIFICATION_TYPE = U
NORAD_CAT_ID   = 85238
ELEMENT_SET_NO = 999
REV_AT_EPOCH   = 61540
BSTAR          = .49678E-4
MEAN_MOTION_DOT = .18E-6
MEAN_MOTION_DDOT = 0

CCSDS_OMM_VERS = 2.0
CREATION_DATE  = 
ORIGINATOR     = 

OBJECT_NAME    = UNKNOWN
OBJECT_ID      = 
CENTER_NAME    = EARTH
REF_FRAME      = TEME
TIME_SYSTEM    = UTC
MEAN_ELEMENT_THEORY = SGP/SGP4

EPOCH          = 2026-01-13T07:06:29.002464
MEAN_MOTION    = 14.21617869
ECCENTRICITY   = .022225
INCLINATION    = 97.9875
RA_OF_ASC_NODE = 18.8315
ARG_OF_PERICENTER = 210.6625
MEAN_ANOMALY   = 148.1411

EPHEMERIS_TYPE = 0
CLASSIFICATION_TYPE = U
NORAD_CAT_ID   = 85246
ELEMENT_SET_NO = 999
REV_AT_EPOCH   = 62755
BSTAR          = .35368E-3
MEAN_MOTION_DOT = .955E-5
MEAN_MOTION_DDOT = 0

CCSDS_OMM_VERS = 2.0
CREATION_DATE  = 
ORIGINATOR     = 

OBJECT_NAME    = UNKNOWN
OBJECT_ID      = 
CENTER_NAME    = EARTH
REF_FRAME      = TEME
TIME_SYSTEM    = UTC
MEAN_ELEMENT_THEORY = SGP/SGP4

EPOCH          = 2026-01-12T08:30:58.156128
MEAN_MOTION    = 14.00151343
ECCENTRICITY   = .0051431
INCLINATION    = 100.4280
RA_OF_ASC_NODE = 57.6758
ARG_OF_PERICENTER = 158.6188
MEAN_ANOMALY   = 266.2101

EPHEMERIS_TYPE = 0
CLASSIFICATION_TYPE = U
NORAD_CAT_ID   = 85373
ELEMENT_SET_NO = 999
REV_AT_EPOCH   = 61641
BSTAR          = .14177E-2
MEAN_MOTION_DOT = .206E-4
MEAN_MOTION_DDOT = 0

