UNKNOWN                 
1 85027U          26013.74630639  .00000054  00000+0  12667-3 0  9995
2 85027  66.0421  23.1292 0174513 173.8022 186.5260 13.74261578609014
UNKNOWN                 
1 85047U          26012.36653286  .00012129  00000+0  19130-1 0  9993
2 85047 102.1766 349.2225 0158211 314.0212  44.7964 13.45199111580773
UNKNOWN                 
1 85061U          26012.90741549  .00003119  00000+0  12622-1 0  9997
2 85061 102.3944   4.5556 0256042 129.6273 263.9528 12.77227261559763
UNKNOWN                 
1 85100U          26014.17244061  .00000273  00000+0  93567-4 0  9997
2 85100  74.0451 162.8254 0012156  18.2971 161.8815 14.40740623638017
UNKNOWN                 
1 85106U          26013.54124705  .00000440  00000+0  53028-3 0  9998
2 85106 100.0556 120.9661 0009354 289.0353  95.7267 13.72946257607437
UNKNOWN                 
1 85151U          26014.37255618  .00011660  00000+0  15395-2 0  9998
2 85151  98.4034 244.8795 0010701  32.0059 328.1799 14.80159657484356
UNKNOWN                 
1 85210U          26013.36970140  .00000686  00000+0  68691-3 0  9990
2 85210  99.8562 160.2249 0218281 233.1030 154.3327 13.71604535606490
UNKNOWN                 
1 85217U          26014.23486227  .00001042  00000+0  28424-3 0  9999
2 85217  98.0283 111.5087 0207760  30.4819 330.8256 14.37359922632525
UNKNOWN                 
1 85237U          26010.96764549  .00003188  00000+0  67689-3 0  9992
2 85237  65.5308 138.1901 0514020  14.2441 347.2516 14.01191952612443
UNKNOWN                 
1 85238U          26014.63490833  .00000018  00000+0  49678-4 0  9991
2 85238  99.0650 307.8807 0064193 111.3971   9.9486 13.88348761615407
UNKNOWN                 
1 85246U          26013.29616901  .00000955  00000+0  35368-3 0  9997
2 85246  97.9875  18.8315 0222250 210.6625 148.1411 14.21617869627553
UNKNOWN                 
1 85373U          26012.35483977  .00002060  00000+0  14177-2 0  9992
2 85373 100.4280  57.6758 0051431 158.6188 266.2101 14.00151343616410
